IRIDIUM 171             
1 43929U 19002H   25212.85406135  .00000120  00000+0  35925-4 0  9993
2 43929  86.4006 127.7795 0002146  92.0033 268.1409 14.34218382343041
IRIDIUM 170             
1 43930U 19002J   25213.17320103  .00000942  00000+0  14545-3 0  9997
2 43930  86.6120 127.3915 0002160  85.0500 275.0963 14.72259836352176
IRIDIUM 167             
1 43931U 19002K   25212.84771823  .00000127  00000+0  38276-4 0  9993
2 43931  86.3996 127.5311 0001871  93.9517 266.1892 14.34218219343047
IRIDIUM 181             
1 56726U 23068S   25212.94331695  .00000193  00000+0  51471-4 0  9991
2 56726  86.4539 190.5502 0002667  98.5075 261.6428 14.43307016116242
IRIDIUM 177             
1 56727U 23068T   25212.82335832  .00001339  00000+0  17275-3 0  9992
2 56727  86.1984 120.9510 0002244  92.2161 267.9317 14.80223997118972
IRIDIUM 174             
1 56728U 23068U   25212.82101086  .00001029  00000+0  15928-3 0  9994
2 56728  86.6127 127.6534 0002518  71.8852 288.2639 14.72252819118880
IRIDIUM 178             
1 56729U 23068V   25212.88006516  .00001388  00000+0  17923-3 0  9998
2 56729  86.6598 159.1911 0002481  83.6246 276.5258 14.80232859118988
IRIDIUM 179             
1 56730U 23068W   25212.94229268  .00001297  00000+0  16721-3 0  9992
2 56730  86.6838 167.1686 0002371  89.6742 270.4752 14.80233005118997
